OBJECT_NAME,OBJECT_ID,EPOCH,MEAN_MOTION,ECCENTRICITY,INCLINATION,RA_OF_ASC_NODE,ARG_OF_PERICENTER,MEAN_ANOMALY,EPHEMERIS_TYPE,CLASSIFICATION_TYPE,NORAD_CAT_ID,ELEMENT_SET_NO,REV_AT_EPOCH,BSTAR,MEAN_MOTION_DOT,MEAN_MOTION_DDOT
PROBA-1,2001-049B,2026-06-24T07:19:38.828928,15.07521217,.00562967,97.9600,184.0860,98.5473,262.2139,0,U,26958,999,34469,.18615154E-3,.2859E-4,0
CUTE-1 (CO-55),2003-031E,2026-06-24T06:32:42.497376,14.24339464,.00099588,98.6736,183.7425,157.9715,202.1894,0,U,27844,999,19268,.12196474E-3,.238E-5,0
CUBESAT XI-IV (CO-57),2003-031J,2026-06-22T23:59:28.134816,14.23623408,.00094237,98.6767,182.1936,179.7329,180.3856,0,U,27848,999,19220,.96660658E-4,.177E-5,0
APRIZESAT 4,2009-041D,2026-06-24T04:51:34.828416,14.83886973,.00420537,98.1410,250.6628,299.7301,59.9730,0,U,35684,999,91240,.68179184E-4,.515E-5,0
APRIZESAT 3,2009-041F,2026-06-24T06:06:31.269312,14.96262752,.00626759,98.2074,328.8172,44.7718,315.8535,0,U,35686,999,91743,.11250743E-3,.1253E-4,0
PROBA-2,2009-059B,2026-06-24T02:49:57.435168,14.54864932,.00119529,98.2453,358.3747,258.3567,101.6289,0,U,36037,999,88253,.48486936E-4,.163E-5,0
APRIZESAT 5,2011-044E,2026-06-23T13:27:00.754560,14.81087337,.00518105,98.2451,107.7814,343.7935,16.1617,0,U,37792,999,79973,.10764753E-3,.795E-5,0
APRIZESAT 6,2011-044F,2026-06-23T17:05:00.714048,14.76924027,.00443801,98.2358,85.3444,65.7980,320.0108,0,U,37793,999,79811,.87602025E-4,.57E-5,0
PROBA-V,2013-021A,2026-06-24T05:13:47.691840,14.23598345,.00053681,98.3587,153.4775,107.2744,252.9023,0,U,39159,999,68211,.49246406E-4,.71E-6,0
APRIZESAT 7,2013-066A,2026-06-24T03:08:22.310592,14.91575729,.00355824,97.7710,128.2509,185.7916,174.2897,0,U,39416,999,68226,.81258736E-4,.767E-5,0
APRIZESAT 8,2013-066K,2026-06-24T03:16:42.062880,14.87663182,.00443322,97.8221,122.5076,262.8997,96.7177,0,U,39425,999,68070,.81458756E-4,.697E-5,0
BUGSAT-1 (TITA),2014-033E,2026-06-24T07:09:56.365056,15.15652997,.00285858,98.0427,268.2635,154.1377,206.1290,0,U,40014,999,65691,.26318447E-3,.498E-4,0
SAUDISAT 4,2014-033G,2026-06-24T03:39:19.488960,14.79552390,.00458827,97.7591,321.0462,51.9752,308.5589,0,U,40016,999,64710,.75662555E-4,.524E-5,0
APRIZESAT 9,2014-033J,2026-06-24T04:46:03.069696,14.74223148,.00662489,97.9068,308.2262,176.5862,183.5812,0,U,40018,999,64459,.98430718E-4,.621E-5,0
APRIZESAT 10,2014-033K,2026-06-24T03:12:11.902176,14.70888025,.00774755,97.9657,301.9382,251.2622,108.0166,0,U,40019,999,64327,.70075788E-4,.395E-5,0
TECHDEMOSAT-1 (TDS-1),2014-037H,2026-06-24T05:36:02.772288,15.13382872,.000479,98.3817,168.1448,233.2991,126.7798,0,U,40076,999,64929,.3790692E-3,.6689E-4,0
TECHNOSAT,2017-042E,2026-06-24T03:56:10.668768,15.04998853,.00193461,97.4296,332.5568,72.5858,287.7482,0,U,42829,999,48775,.18853281E-3,.2626E-4,0
FLYING LAPTOP,2017-042G,2026-06-24T07:37:38.034048,15.01185182,.00198971,97.4720,330.5773,98.9889,261.3588,0,U,42831,999,48752,.21202642E-3,.2673E-4,0
HAWK-A,2018-099H,2026-06-24T02:35:29.473728,15.24710798,.00330863,97.3912,227.2535,260.2275,99.5225,0,U,43765,999,41415,.21845103E-3,.5413E-4,0
HAWK-B,2018-099AN,2026-06-24T03:18:23.452416,15.22888330,.00302488,97.3962,226.6835,279.1729,80.6086,0,U,43794,999,41409,.21051197E-3,.4923E-4,0
HAWK-C,2018-099AT,2026-06-24T03:13:25.043232,15.28184587,.00387466,97.3890,228.2262,260.0697,99.6169,0,U,43799,999,41497,.229847E-3,.6377E-4,0
SALSAT,2020-068K,2026-06-24T06:35:57.895296,15.29885766,.00078015,97.8854,178.7714,277.9982,82.0372,0,U,46495,999,31644,.23162762E-3,.6623E-4,0
HAWK-2C,2021-006CT,2026-06-24T03:05:34.171872,15.34735182,.00074676,97.2279,219.3003,162.3492,197.8013,0,U,47502,999,30056,.16998026E-3,.5649E-4,0
HAWK-2A,2021-006CW,2026-06-24T03:09:03.703968,15.34749783,.00069086,97.2323,219.9846,165.1041,195.0408,0,U,47505,999,30056,.1698024E-3,.5645E-4,0
HAWK-2B,2021-006CZ,2026-06-24T04:35:54.826656,15.34848234,.00075054,97.2191,218.3639,163.7383,196.4103,0,U,47508,999,30057,.19206644E-3,.6417E-4,0
HAWK-3B,2021-059BE,2026-06-24T06:32:04.408800,15.70106095,.00030698,97.6659,12.6533,292.9089,67.1848,0,U,48931,999,27896,.35110337E-3,.42335E-3,0
HAWK-3C,2021-059BX,2026-06-24T01:56:17.203488,15.70096600,.00033761,97.6779,18.1411,296.4087,63.6828,0,U,48948,999,27893,.34655815E-3,.41768E-3,0
HAWK-3A,2021-059CG,2026-06-24T01:56:03.844320,15.70086682,.00032954,97.6722,15.3404,298.1464,61.9464,0,U,48957,999,27893,.33561954E-3,.40422E-3,0
HAWK-5C,2022-057Y,2026-06-24T00:13:57.552960,15.51602898,.00045108,97.6603,335.1176,62.0358,298.1350,0,U,52754,999,22740,.28323179E-3,.16715E-3,0
HAWK-5B,2022-057AA,2026-06-23T22:40:51.780000,15.51603042,.00051968,97.6613,333.3988,54.5898,305.5839,0,U,52756,999,22739,.2839302E-3,.16758E-3,0
