PROBA-1                 
1 26958U 01049B   26175.30531052  .00002859  00000+0  18615-3 0  9991
2 26958  97.9600 184.0860 0056296  98.5473 262.2139 15.07521217344696
CUTE-1 (CO-55)          
1 27844U 03031E   26175.27271409  .00000238  00000+0  12196-3 0  9999
2 27844  98.6736 183.7425 0009958 157.9715 202.1894 14.24339464192684
CUBESAT XI-IV (CO-57)   
1 27848U 03031J   26173.99963119  .00000177  00000+0  96661-4 0  9998
2 27848  98.6767 182.1936 0009423 179.7329 180.3856 14.23623408192208
APRIZESAT 4             
1 35684U 09041D   26175.20248644  .00000515  00000+0  68179-4 0  9996
2 35684  98.1410 250.6628 0042053 299.7301  59.9730 14.83886973912401
APRIZESAT 3             
1 35686U 09041F   26175.25452858  .00001253  00000+0  11251-3 0  9995
2 35686  98.2074 328.8172 0062675  44.7718 315.8535 14.96262752917436
PROBA-2                 
1 36037U 09059B   26175.11802587  .00000163  00000+0  48487-4 0  9999
2 36037  98.2453 358.3747 0011952 258.3567 101.6289 14.54864932882532
APRIZESAT 5             
1 37792U 11044E   26174.56042540  .00000795  00000+0  10765-3 0  9996
2 37792  98.2451 107.7814 0051810 343.7935  16.1617 14.81087337799735
APRIZESAT 6             
1 37793U 11044F   26174.71181382  .00000570  00000+0  87602-4 0  9998
2 37793  98.2358  85.3444 0044380  65.7980 320.0108 14.76924027798110
PROBA-V                 
1 39159U 13021A   26175.21791310  .00000071  00000+0  49246-4 0  9995
2 39159  98.3587 153.4775 0005368 107.2744 252.9023 14.23598345682113
APRIZESAT 7             
1 39416U 13066A   26175.13081378  .00000767  00000+0  81259-4 0  9999
2 39416  97.7710 128.2509 0035582 185.7916 174.2897 14.91575729682265
APRIZESAT 8             
1 39425U 13066K   26175.13659795  .00000697  00000+0  81459-4 0  9997
2 39425  97.8221 122.5076 0044332 262.8997  96.7177 14.87663182680700
BUGSAT-1 (TITA)         
1 40014U 14033E   26175.29856904  .00004980  00000+0  26318-3 0  9997
2 40014  98.0427 268.2635 0028585 154.1377 206.1290 15.15652997656916
SAUDISAT 4              
1 40016U 14033G   26175.15230890  .00000524  00000+0  75663-4 0  9992
2 40016  97.7591 321.0462 0045882  51.9752 308.5589 14.79552390647106
APRIZESAT 9             
1 40018U 14033J   26175.19864664  .00000621  00000+0  98431-4 0  9996
2 40018  97.9068 308.2262 0066248 176.5862 183.5812 14.74223148644590
APRIZESAT 10            
1 40019U 14033K   26175.13347109  .00000395  00000+0  70076-4 0  9994
2 40019  97.9657 301.9382 0077475 251.2622 108.0166 14.70888025643272
TECHDEMOSAT-1 (TDS-1)   
1 40076U 14037H   26175.23336542  .00006689  00000+0  37907-3 0  9998
2 40076  98.3817 168.1448 0004790 233.2991 126.7798 15.13382872649296
TECHNOSAT               
1 42829U 17042E   26175.16401237  .00002626  00000+0  18853-3 0  9997
2 42829  97.4296 332.5568 0019346  72.5858 287.7482 15.04998853487755
FLYING LAPTOP           
1 42831U 17042G   26175.31780132  .00002673  00000+0  21203-3 0  9996
2 42831  97.4720 330.5773 0019897  98.9889 261.3588 15.01185182487523
HAWK-A                  
1 43765U 18099H   26175.10798002  .00005413  00000+0  21845-3 0  9995
2 43765  97.3912 227.2535 0033086 260.2275  99.5225 15.24710798414159
HAWK-B                  
1 43794U 18099AN  26175.13777144  .00004923  00000+0  21051-3 0  9998
2 43794  97.3962 226.6835 0030248 279.1729  80.6086 15.22888330414097
HAWK-C                  
1 43799U 18099AT  26175.13431763  .00006377  00000+0  22985-3 0  9999
2 43799  97.3890 228.2262 0038746 260.0697  99.6169 15.28184587414976
SALSAT                  
1 46495U 20068K   26175.27497564  .00006623  00000+0  23163-3 0  9993
2 46495  97.8854 178.7714 0007801 277.9982  82.0372 15.29885766316443
HAWK-2C                 
1 47502U 21006CT  26175.12886773  .00005649  00000+0  16998-3 0  9999
2 47502  97.2279 219.3003 0007467 162.3492 197.8013 15.34735182300567
HAWK-2A                 
1 47505U 21006CW  26175.13129287  .00005645  00000+0  16980-3 0  9990
2 47505  97.2323 219.9846 0006908 165.1041 195.0408 15.34749783300561
HAWK-2B                 
1 47508U 21006CZ  26175.19160679  .00006417  00000+0  19207-3 0  9992
2 47508  97.2191 218.3639 0007505 163.7383 196.4103 15.34848234300576
HAWK-3B                 
1 48931U 21059BE  26175.27227325  .00042335  00000+0  35110-3 0  9992
2 48931  97.6659  12.6533 0003069 292.9089  67.1848 15.70106095278966
HAWK-3C                 
1 48948U 21059BX  26175.08075467  .00041768  00000+0  34656-3 0  9990
2 48948  97.6779  18.1411 0003376 296.4087  63.6828 15.70096600278937
HAWK-3A                 
1 48957U 21059CG  26175.08060005  .00040422  00000+0  33562-3 0  9993
2 48957  97.6722  15.3404 0003295 298.1464  61.9464 15.70086682278930
HAWK-5C                 
1 52754U 22057Y   26175.00969390  .00016715  00000+0  28323-3 0  9996
2 52754  97.6603 335.1176 0004510  62.0358 298.1350 15.51602898227404
HAWK-5B                 
1 52756U 22057AA  26174.94504375  .00016758  00000+0  28393-3 0  9992
2 52756  97.6613 333.3988 0005196  54.5898 305.5839 15.51603042227399
